{
  "amenity": {
    "required": true,
    "custom_value": true
  },
  "office": {
    "required": true
  },
  "tourism": {
    "required": true,
    "custom_value": true
  },
  "natural": {
    "required": true,
    "default": "water"
  },
  "manmade": {
    "required": true
  },
  "landuse": {
    "required": true,
    "default": "industrial"
  },
  "place": {
    "required": true
  },


  "operator": {
    "select_multiple": true,
    "hide_if ": {
      "amenity": "place_of_worship,bank,fuel,post-box,studio,bus_station"
    }
  },

  "religion": {
    "show_if": {
      "amenity": "place_of_worship"
    }
  },
  "drinking_water": {
    "show_if": {
      "amenity": "place_of_worship"
    }
  },
  "toilet": {
    "show_if": {
      "amenity": "place_of_worship"
    }
  },
  "nrb_class": {
    "show_if": {
      "amenity": "bank"
    }
  },
  "atm": {
    "show_if": {
      "amenity": "bank"
    }
  },
  "student_count": {
    "numeric": true,
    "custom_value": true,
    "show_if": {
      "amenity": "school,kindergarten,college,university"
    }
  },
  "teacher_count": {
    "numeric": true,
    "custom_value": true,
    "show_if": {
      "amenity": "school,kindergarten,college,university"
    }
  },
  "staff_number": {
    "numeric": true,
    "custom_value": true,
    "show_if": {
      "amenity": "hospital,health_post"
    }
  },
  "bed_count": {
    "numeric": true,
    "custom_value": true,
    "show_if": {
      "amenity": "hospital,health_post"
    }
  },
  "ambulance": {
    "show_if": {
      "amenity": "hospital"
    }
  },
  "operation": {
    "show_if": {
      "amenity": "hospital"
    }
  },
  "emergency": {
    "show_if": {
      "amenity": "hospital"
    }
  },
  "icu": {
    "show_if": {
      "amenity": "hospital"
    }
  },
  "nicu": {
    "show_if": {
      "amenity": "hospital"
    }
  },
  "ventilator": {
    "show_if": {
      "amenity": "hospital"
    }
  },
  "x-ray": {
    "show_if": {
      "amenity": "hospital"
    }
  },


  "phone": {
    "custom_value": true,
    "hide_if": {
      "amenity": "place_of_worship"
    }
  },
  "website": {
    "custom_value": true,
    "hide_if": {
      "amenity": "place_of_worship,pharmacy,fuel,bus_station "
    }
  },
  "email": {
    "custom_value": true,
    "hide_if": {
      "amenity": "place_of_worship,bus_station "
    }
  },

  "source": {
    "implicit": "TECHCAMP_Namobuddha_2021"
  }

}